{
    "links": {
        "self": "http://www.neowsapp.com/rest/v1/neo/3610525?api_key=iIulBulltgU6a56xZRHN4H3l9WmuAYTsLGpBGhQ2"
    },
    "id": "3610525",
    "neo_reference_id": "3610525",
    "name": "(2012 TN139)",
    "designation": "2012 TN139",
    "nasa_jpl_url": "http://ssd.jpl.nasa.gov/sbdb.cgi?sstr=3610525",
    "absolute_magnitude_h": 23.7,
    "estimated_diameter": {
        "kilometers": {
            "estimated_diameter_min": 0.0483676488,
            "estimated_diameter_max": 0.1081533507
        },
        "meters": {
            "estimated_diameter_min": 48.3676488219,
            "estimated_diameter_max": 108.1533506775
        },
        "miles": {
            "estimated_diameter_min": 0.0300542543,
            "estimated_diameter_max": 0.0672033557
        },
        "feet": {
            "estimated_diameter_min": 158.6865169607,
            "estimated_diameter_max": 354.8338390368
        }
    },
    "is_potentially_hazardous_asteroid": false,
    "close_approach_data": [
        {
            "close_approach_date": "2001-11-01",
            "close_approach_date_full": "2001-Nov-01 03:22",
            "epoch_date_close_approach": 1004584920000,
            "relative_velocity": {
                "kilometers_per_second": "11.8176858433",
                "kilometers_per_hour": "42543.6690357904",
                "miles_per_hour": "26434.9814628221"
            },
            "miss_distance": {
                "astronomical": "0.4104361108",
                "lunar": "159.6596471012",
                "kilometers": "61400367.946763996",
                "miles": "38152419.4909193048"
            },
            "orbiting_body": "Earth"
        },
        {
            "close_approach_date": "2012-10-16",
            "close_approach_date_full": "2012-Oct-16 05:16",
            "epoch_date_close_approach": 1350364560000,
            "relative_velocity": {
                "kilometers_per_second": "4.6259136569",
                "kilometers_per_hour": "16653.2891647918",
                "miles_per_hour": "10347.7062590896"
            },
            "miss_distance": {
                "astronomical": "0.1603248445",
                "lunar": "62.3663645105",
                "kilometers": "23984255.245281215",
                "miles": "14903125.142322167"
            },
            "orbiting_body": "Earth"
        }
    ],
    "orbital_data": {
        "orbit_id": "10",
        "orbit_determination_date": "2017-04-06 08:48:38",
        "first_observation_date": "2012-10-10",
        "last_observation_date": "2012-11-13",
        "data_arc_in_days": 34,
        "observations_used": 27,
        "orbit_uncertainty": "7",
        "minimum_orbit_intersection": ".166612",
        "jupiter_tisserand_invariant": "3.350",
        "epoch_osculation": "2459000.5",
        "eccentricity": ".5123207278112613",
        "semi_major_axis": "2.374655374748667",
        "inclination": "2.804600847853506",
        "ascending_node_longitude": "72.5346517856344",
        "orbital_period": "1336.593403022329",
        "perihelion_distance": "1.158070204856507",
        "perihelion_argument": "310.0806045449127",
        "aphelion_distance": "3.591240544640828",
        "perihelion_time": "2458887.683604989210",
        "mean_anomaly": "30.38613097449648",
        "mean_motion": ".2693414460867169",
        "equinox": "J2000",
        "orbit_class": {
            "orbit_class_type": "AMO",
            "orbit_class_description": "Near-Earth asteroid orbits similar to that of 1221 Amor",
            "orbit_class_range": "1.017 AU < q (perihelion) < 1.3 AU"
        }
    },
    "is_sentry_object": false
}